[{"OBJECT_NAME":"STARLINK-4011","OBJECT_ID":"2022-052T","EPOCH":"2026-03-09T20:59:02.290848","MEAN_MOTION":15.0883983,"ECCENTRICITY":0.00012344,"INCLINATION":53.2176,"RA_OF_ASC_NODE":283.2946,"ARG_OF_PERICENTER":93.1196,"MEAN_ANOMALY":266.9938,"EPHEMERIS_TYPE":0,"CLASSIFICATION_TYPE":"U","NORAD_CAT_ID":52615,"ELEMENT_SET_NO":999,"REV_AT_EPOCH":21080,"BSTAR":-0.00064667449,"MEAN_MOTION_DOT":-0.00010565,"MEAN_MOTION_DDOT":0},{"OBJECT_NAME":"RAPIDEYE 1","OBJECT_ID":"2008-040C","EPOCH":"2026-03-09T15:08:44.758176","MEAN_MOTION":15.03049091,"ECCENTRICITY":0.0028174,"INCLINATION":97.4223,"RA_OF_ASC_NODE":100.7722,"ARG_OF_PERICENTER":157.1968,"MEAN_ANOMALY":203.0516,"EPHEMERIS_TYPE":0,"CLASSIFICATION_TYPE":"U","NORAD_CAT_ID":33314,"ELEMENT_SET_NO":999,"REV_AT_EPOCH":95070,"BSTAR":0.00023277,"MEAN_MOTION_DOT":3.104e-5,"MEAN_MOTION_DDOT":0}]
